{
  "links" : {
    "next" : "https://api.nasa.gov/neo/rest/v1/feed?start_date=2008-11-16&end_date=2008-11-16&detailed=true&api_key=t0TVs3DtDT2H8Oy2Zy8m2eVrNsAVKAexjcZXUckd",
    "prev" : "https://api.nasa.gov/neo/rest/v1/feed?start_date=2008-11-14&end_date=2008-11-14&detailed=true&api_key=t0TVs3DtDT2H8Oy2Zy8m2eVrNsAVKAexjcZXUckd",
    "self" : "https://api.nasa.gov/neo/rest/v1/feed?start_date=2008-11-15&end_date=2008-11-15&detailed=true&api_key=t0TVs3DtDT2H8Oy2Zy8m2eVrNsAVKAexjcZXUckd"
  },
  "element_count" : 9,
  "near_earth_objects" : {
    "2008-11-15" : [ {
      "links" : {
        "self" : "https://api.nasa.gov/neo/rest/v1/neo/3550308?api_key=t0TVs3DtDT2H8Oy2Zy8m2eVrNsAVKAexjcZXUckd"
      },
      "neo_reference_id" : "3550308",
      "name" : "(2010 VN1)",
      "nasa_jpl_url" : "http://ssd.jpl.nasa.gov/sbdb.cgi?sstr=3550308",
      "absolute_magnitude_h" : 28.3,
      "estimated_diameter" : {
        "kilometers" : {
          "estimated_diameter_min" : 0.0058150704,
          "estimated_diameter_max" : 0.0130028927
        },
        "meters" : {
          "estimated_diameter_min" : 5.8150703965,
          "estimated_diameter_max" : 13.0028927004
        },
        "miles" : {
          "estimated_diameter_min" : 0.0036133161,
          "estimated_diameter_max" : 0.0080796204
        },
        "feet" : {
          "estimated_diameter_min" : 19.0783155595,
          "estimated_diameter_max" : 42.6604104873
        }
      },
      "is_potentially_hazardous_asteroid" : false,
      "close_approach_data" : [ {
        "close_approach_date" : "2008-11-15",
        "epoch_date_close_approach" : 1226736000000,
        "relative_velocity" : {
          "kilometers_per_second" : "16.3565947411",
          "kilometers_per_hour" : "58883.741067798",
          "miles_per_hour" : "36588.0667762659"
        },
        "miss_distance" : {
          "astronomical" : "0.1785335718",
          "lunar" : "69.4495620728",
          "kilometers" : "26708242",
          "miles" : "16595732"
        },
        "orbiting_body" : "Earth"
      } ],
      "orbital_data" : {
        "orbit_id" : "12",
        "orbit_determination_date" : "2017-04-06 08:55:56",
        "orbit_uncertainty" : "7",
        "minimum_orbit_intersection" : ".000696734",
        "jupiter_tisserand_invariant" : "4.180",
        "epoch_osculation" : "2458000.5",
        "eccentricity" : ".4658215452103295",
        "semi_major_axis" : "1.630768133384317",
        "inclination" : "3.36003385218476",
        "ascending_node_longitude" : "40.60257951316279",
        "orbital_period" : "760.6532959558687",
        "perihelion_distance" : ".8711212016114698",
        "perihelion_argument" : "307.4340289313652",
        "aphelion_distance" : "2.390415065157165",
        "perihelion_time" : "2457746.982783786640",
        "mean_anomaly" : "119.9839642081886",
        "mean_motion" : ".4732773813168179",
        "equinox" : "J2000"
      }
    }, {
      "links" : {
        "self" : "https://api.nasa.gov/neo/rest/v1/neo/2003360?api_key=t0TVs3DtDT2H8Oy2Zy8m2eVrNsAVKAexjcZXUckd"
      },
      "neo_reference_id" : "2003360",
      "name" : "3360 Syrinx (1981 VA)",
      "nasa_jpl_url" : "http://ssd.jpl.nasa.gov/sbdb.cgi?sstr=2003360",
      "absolute_magnitude_h" : 15.9,
      "estimated_diameter" : {
        "kilometers" : {
          "estimated_diameter_min" : 1.7561231848,
          "estimated_diameter_max" : 3.9268108181
        },
        "meters" : {
          "estimated_diameter_min" : 1756.1231848042,
          "estimated_diameter_max" : 3926.8108180856
        },
        "miles" : {
          "estimated_diameter_min" : 1.0912040195,
          "estimated_diameter_max" : 2.4400063648
        },
        "feet" : {
          "estimated_diameter_min" : 5761.559189633,
          "estimated_diameter_max" : 12883.2380044079
        }
      },
      "is_potentially_hazardous_asteroid" : false,
      "close_approach_data" : [ {
        "close_approach_date" : "2008-11-15",
        "epoch_date_close_approach" : 1226736000000,
        "relative_velocity" : {
          "kilometers_per_second" : "35.2243520122",
          "kilometers_per_hour" : "126807.6672439751",
          "miles_per_hour" : "78793.3530161244"
        },
        "miss_distance" : {
          "astronomical" : "0.4543975546",
          "lunar" : "176.7606506348",
          "kilometers" : "67976904",
          "miles" : "42238892"
        },
        "orbiting_body" : "Earth"
      } ],
      "orbital_data" : {
        "orbit_id" : "106",
        "orbit_determination_date" : "2017-04-06 09:30:44",
        "orbit_uncertainty" : "0",
        "minimum_orbit_intersection" : ".107145",
        "jupiter_tisserand_invariant" : "2.966",
        "epoch_osculation" : "2458000.5",
        "eccentricity" : ".7455466327032743",
        "semi_major_axis" : "2.466206976233175",
        "inclination" : "21.15980068091829",
        "ascending_node_longitude" : "242.552264584407",
        "orbital_period" : "1414.629497859209",
        "perihelion_distance" : ".6275346695532076",
        "perihelion_argument" : "63.45311185398872",
        "aphelion_distance" : "4.304879282913143",
        "perihelion_time" : "2457576.058740137312",
        "mean_anomaly" : "108.0133376137015",
        "mean_motion" : ".2544835948527839",
        "equinox" : "J2000"
      }
    }, {
      "links" : {
        "self" : "https://api.nasa.gov/neo/rest/v1/neo/2164202?api_key=t0TVs3DtDT2H8Oy2Zy8m2eVrNsAVKAexjcZXUckd"
      },
      "neo_reference_id" : "2164202",
      "name" : "164202 (2004 EW)",
      "nasa_jpl_url" : "http://ssd.jpl.nasa.gov/sbdb.cgi?sstr=2164202",
      "absolute_magnitude_h" : 20.8,
      "estimated_diameter" : {
        "kilometers" : {
          "estimated_diameter_min" : 0.1838886721,
          "estimated_diameter_max" : 0.411187571
        },
        "meters" : {
          "estimated_diameter_min" : 183.8886720703,
          "estimated_diameter_max" : 411.1875710413
        },
        "miles" : {
          "estimated_diameter_min" : 0.1142630881,
          "estimated_diameter_max" : 0.2555000322
        },
        "feet" : {
          "estimated_diameter_min" : 603.309310875,
          "estimated_diameter_max" : 1349.040630575
        }
      },
      "is_potentially_hazardous_asteroid" : true,
      "close_approach_data" : [ {
        "close_approach_date" : "2008-11-15",
        "epoch_date_close_approach" : 1226736000000,
        "relative_velocity" : {
          "kilometers_per_second" : "9.6670362631",
          "kilometers_per_hour" : "34801.3305472906",
          "miles_per_hour" : "21624.1934170095"
        },
        "miss_distance" : {
          "astronomical" : "0.2798004729",
          "lunar" : "108.8423843384",
          "kilometers" : "41857556",
          "miles" : "26009080"
        },
        "orbiting_body" : "Earth"
      } ],
      "orbital_data" : {
        "orbit_id" : "73",
        "orbit_determination_date" : "2017-05-28 06:20:23",
        "orbit_uncertainty" : "0",
        "minimum_orbit_intersection" : ".0241636",
        "jupiter_tisserand_invariant" : "6.099",
        "epoch_osculation" : "2458000.5",
        "eccentricity" : ".2792445622055008",
        "semi_major_axis" : ".9882461226873593",
        "inclination" : "4.669720186458235",
        "ascending_node_longitude" : "342.9446180859713",
        "orbital_period" : "358.8360814924976",
        "perihelion_distance" : ".7122837668062439",
        "perihelion_argument" : "56.11674907775181",
        "aphelion_distance" : "1.264208478568475",
        "perihelion_time" : "2458009.864908087411",
        "mean_anomaly" : "350.6047159542996",
        "mean_motion" : "1.003243593851157",
        "equinox" : "J2000"
      }
    } ]
  }
}